STARLINK-32393          
1 61862U 24202T   26068.47224197  .00000327  00000+0  21414-4 0  9998
2 61862  43.0016 239.2823 0001732 279.9745  80.0911 15.27579329 75308
OTTER                   
1 62623U 25009Q   26068.72300813  .00012198  00000+0  45151-3 0  9990
2 62623  97.4065 151.3812 0003573 310.7710  49.3219 15.27809545 63722
